NORAD_CAT_ID,OBJECT_NAME,OBJECT_TYPE,EPOCH,MEAN_MOTION,ECCENTRICITY,INCLINATION,RA_OF_ASC_NODE,ARG_OF_PERICENTER,MEAN_ANOMALY,BSTAR,MEAN_MOTION_DOT,MEAN_MOTION_DDOT,TLE_LINE0,TLE_LINE1,TLE_LINE2,SEMIMAJOR_AXIS,PERIOD,APOGEE,PERIGEE,DECAYED
52490.0,STARLINK-3914,PAYLOAD,2023-12-21 13:44:57,15.08853817,0.0001999,53.2182,81.3866,60.8069,299.3123,0.00054602,8.416e-05,0.0,0 STARLINK-3914,1 52490U 22049AR  23355.57289343  .00008416  00000-0  54602-3 0  9995,2 52490  53.2182  81.3866 0001999  60.8069 299.3123 15.08853817 90242,6917.838,95.437,541.086,538.32,0.0
52490.0,STARLINK-3914,PAYLOAD,2023-12-22 12:00:22,15.08845623,0.0001751,53.2175,77.2283,69.1276,290.9903,0.00019296,2.785e-05,0.0,0 STARLINK-3914,1 52490U 22049AR  23356.50025499  .00002785  00000-0  19296-3 0  9992,2 52490  53.2175  77.2283 0001751  69.1276 290.9903 15.08845623 90541,6917.863,95.437,540.94,538.517,0.0
52490.0,STARLINK-3914,PAYLOAD,2023-12-23 11:51:08,15.08848258,0.00016,53.2178,72.7631,87.3066,272.811,0.00013864,1.92e-05,0.0,0 STARLINK-3914,1 52490U 22049AR  23357.49384959  .00001920  00000-0  13864-3 0  9995,2 52490  53.2178  72.7631 0001600  87.3066 272.8110 15.08848258 90538,6917.855,95.437,540.827,538.613,0.0
52490.0,STARLINK-3914,PAYLOAD,2023-12-23 15:01:54,15.08854882,0.0001473,53.2173,72.1646,94.3838,265.7322,0.00030965,4.646e-05,0.0,0 STARLINK-3914,1 52490U 22049AR  23357.62632631  .00004646  00000-0  30965-3 0  9992,2 52490  53.2173  72.1646 0001473  94.3838 265.7322 15.08854882 90712,6917.835,95.437,540.719,538.681,0.0
52490.0,STARLINK-3914,PAYLOAD,2023-12-24 11:41:55,15.08850204,0.000168,53.218,68.2971,81.3759,278.7423,0.00019796,2.865e-05,0.0,0 STARLINK-3914,1 52490U 22049AR  23358.48745027  .00002865  00000-0  19796-3 0  9991,2 52490  53.2180  68.2971 0001680  81.3759 278.7423 15.08850204 90849,6917.849,95.437,540.876,538.552,0.0
52490.0,STARLINK-3914,PAYLOAD,2023-12-24 14:52:41,15.08860734,0.0001439,53.2173,67.7054,83.7838,276.3318,0.00052912,8.148e-05,0.0,0 STARLINK-3914,1 52490U 22049AR  23358.61992803  .00008148  00000-0  52912-3 0  9999,2 52490  53.2173  67.7054 0001439  83.7838 276.3318 15.08860734 90704,6917.817,95.436,540.677,538.687,0.0
52490.0,STARLINK-3914,PAYLOAD,2023-12-25 11:32:42,15.08847688,0.0001651,53.2173,63.838,108.9111,251.206,0.00041539,6.33e-05,0.0,0 STARLINK-3914,1 52490U 22049AR  23359.48104947  .00006330  00000-0  41539-3 0  9993,2 52490  53.2173  63.8380 0001651 108.9111 251.2060 15.08847688 90993,6917.857,95.437,540.864,538.58,0.0
52490.0,STARLINK-3914,PAYLOAD,2023-12-26 11:23:30,15.08834854,0.0001624,53.2182,59.381,96.3,263.8177,1.079e-06,-2.71e-06,0.0,0 STARLINK-3914,1 52490U 22049AR  23360.47465746 -.00000271  00000-0  10790-5 0  9997,2 52490  53.2182  59.3810 0001624  96.3000 263.8177 15.08834854 91145,6917.896,95.438,540.885,538.638,0.0
52490.0,STARLINK-3914,PAYLOAD,2023-12-27 11:14:18,15.08819609,0.000154,53.2174,54.9206,103.0616,257.0549,-0.00011843,-2.171e-05,0.0,0 STARLINK-3914,1 52490U 22049AR  23361.46827317 -.00002171  00000-0 -11843-3 0  9993,2 52490  53.2174  54.9206 0001540 103.0616 257.0549 15.08819609 91297,6917.943,95.439,540.873,538.742,0.0
52490.0,STARLINK-3914,PAYLOAD,2023-12-28 11:05:05,15.0884385,0.0001849,53.2183,50.4622,69.0478,291.0712,0.00046132,7.062e-05,0.0,0 STARLINK-3914,1 52490U 22049AR  23362.46187485  .00007062  00000-0  46132-3 0  9990,2 52490  53.2183  50.4622 0001849  69.0478 291.0712 15.08843850 91441,6917.869,95.437,541.013,538.455,0.0
52490.0,STARLINK-3914,PAYLOAD,2023-12-28 12:40:28,15.0885326,0.0001523,53.2174,50.1587,90.5196,269.5971,0.00062394,9.66e-05,0.0,0 STARLINK-3914,1 52490U 22049AR  23362.52811051  .00009660  00000-0  62394-3 0  9994,2 52490  53.2174  50.1587 0001523  90.5196 269.5971 15.08853260 91299,6917.84,95.437,540.758,538.651,0.0
52490.0,STARLINK-3914,PAYLOAD,2023-12-29 09:20:29,15.08848918,0.0002114,53.2192,46.2853,65.6414,294.4799,0.00032629,4.91e-05,0.0,0 STARLINK-3914,1 52490U 22049AR  23363.38923197  .00004910  00000-0  32629-3 0  9995,2 52490  53.2192  46.2853 0002114  65.6414 294.4799 15.08848918 91585,6917.853,95.437,541.181,538.256,0.0
52490.0,STARLINK-3914,PAYLOAD,2023-12-30 09:11:15,15.08855639,0.0001682,53.2174,41.8362,110.7273,249.3899,6.8268e-05,7.99e-06,0.0,0 STARLINK-3914,1 52490U 22049AR  23364.38281987  .00000799  00000-0  68268-4 0  9990,2 52490  53.2174  41.8362 0001682 110.7273 249.3899 15.08855639 91572,6917.833,95.437,540.861,538.534,0.0
52490.0,STARLINK-3914,PAYLOAD,2023-12-31 02:40:30,15.08843479,0.000179,53.2177,38.5687,84.6387,275.4809,-6.4535e-06,-3.91e-06,0.0,0 STARLINK-3914,1 52490U 22049AR  23365.11146449 -.00000391  00000-0 -64535-5 0  9999,2 52490  53.2177  38.5687 0001790  84.6387 275.4809 15.08843479 91843,6917.87,95.437,540.973,538.496,0.0
52490.0,STARLINK-3914,PAYLOAD,2023-12-31 09:02:03,15.08840723,0.0001718,53.2187,37.3776,106.5611,253.557,-2.3649e-05,-6.64e-06,0.0,0 STARLINK-3914,1 52490U 22049AR  23365.37642669 -.00000664  00000-0 -23649-4 0  9995,2 52490  53.2187  37.3776 0001718 106.5611 253.5570 15.08840723 91722,6917.878,95.438,540.932,538.555,0.0
52490.0,STARLINK-3914,PAYLOAD,2024-01-01 12:03:36,15.08842572,0.0001635,53.2178,32.3211,106.1701,253.9471,2.8039e-05,1.58e-06,0.0,0 STARLINK-3914,1 52490U 22049AR  24001.50250266  .00000158  00000-0  28039-4 0  9990,2 52490  53.2178  32.3211 0001635 106.1701 253.9471 15.08842572 92050,6917.873,95.437,540.869,538.606,0.0
52490.0,STARLINK-3914,PAYLOAD,2024-01-02 07:08:14,15.08838618,0.000162,53.2174,28.7514,108.6755,251.4413,9.3451e-05,1.2e-05,0.0,0 STARLINK-3914,1 52490U 22049AR  24002.29738474  .00001200  00000-0  93451-4 0  9998,2 52490  53.2174  28.7514 0001620 108.6755 251.4413 15.08838618 92012,6917.885,95.438,540.87,538.629,0.0
52490.0,STARLINK-3914,PAYLOAD,2024-01-03 06:59:01,15.08833995,0.0001668,53.2173,24.2908,112.6494,247.4675,2.8029e-05,1.58e-06,0.0,0 STARLINK-3914,1 52490U 22049AR  24003.29099179  .00000158  00000-0  28029-4 0  9991,2 52490  53.2173  24.2908 0001668 112.6494 247.4675 15.08833995 92328,6917.899,95.438,540.918,538.61,0.0
52490.0,STARLINK-3914,PAYLOAD,2024-01-04 08:25:11,15.08848777,0.0001432,53.2175,19.5363,76.7751,283.3401,2.3547e-05,8.7e-07,0.0,0 STARLINK-3914,1 52490U 22049AR  24004.35082576  .00000087  00000-0  23547-4 0  9993,2 52490  53.2175  19.5363 0001432  76.7751 283.3401 15.08848777 92484,6917.854,95.437,540.709,538.728,0.0
52490.0,STARLINK-3914,PAYLOAD,2024-01-05 05:05:12,15.08836413,0.0001393,53.2177,15.6683,102.848,257.2667,3.0295e-05,1.94e-06,0.0,0 STARLINK-3914,1 52490U 22049AR  24005.21195347  .00000194  00000-0  30295-4 0  9997,2 52490  53.2177  15.6683 0001393 102.8480 257.2667 15.08836413 92617,6917.891,95.438,540.72,538.793,0.0
52490.0,STARLINK-3914,PAYLOAD,2024-01-05 06:40:35,15.08836459,0.0001381,53.2169,15.3713,85.6533,274.4617,3.7751e-05,3.13e-06,0.0,0 STARLINK-3914,1 52490U 22049AR  24005.27819437  .00000313  00000-0  37751-4 0  9993,2 52490  53.2169  15.3713 0001381  85.6533 274.4617 15.08836459 92462,6917.891,95.438,540.712,538.801,0.0
52490.0,STARLINK-3914,PAYLOAD,2024-01-06 04:55:59,15.08853907,0.0001331,53.2177,11.2081,94.6648,265.4496,-8.578e-06,-4.25e-06,0.0,0 STARLINK-3914,1 52490U 22049AR  24006.20554459 -.00000425  00000-0 -85780-5 0  9999,2 52490  53.2177  11.2081 0001331  94.6648 265.4496 15.08853907 92761,6917.838,95.437,540.624,538.782,0.0
52490.0,STARLINK-3914,PAYLOAD,2024-01-06 06:31:22,15.08854399,0.0001373,53.2175,10.9106,96.4462,263.6687,7.6888e-06,-1.66e-06,0.0,0 STARLINK-3914,1 52490U 22049AR  24006.27178338 -.00000166  00000-0  76888-5 0  9994,2 52490  53.2175  10.9106 0001373  96.4462 263.6687 15.08854399 92615,6917.836,95.437,540.651,538.752,0.0
52490.0,STARLINK-3914,PAYLOAD,2024-01-07 04:46:48,15.08817542,0.000182,53.2197,6.75,42.6407,317.4726,2.0316e-05,3.5e-07,0.0,0 STARLINK-3914,1 52490U 22049AR  24007.19917792  .00000035  00000-0  20316-4 0  9999,2 52490  53.2197   6.7500 0001820  42.6407 317.4726 15.08817542 92913,6917.949,95.439,541.073,538.555,0.0
52490.0,STARLINK-3914,PAYLOAD,2024-01-07 06:22:10,15.08837857,0.0001396,53.2175,6.4499,99.8866,260.2283,8.6356e-05,1.087e-05,0.0,0 STARLINK-3914,1 52490U 22049AR  24007.26539919  .00001087  00000-0  86356-4 0  9992,2 52490  53.2175   6.4499 0001396  99.8866 260.2283 15.08837857 92929,6917.887,95.438,540.718,538.786,0.0
52490.0,STARLINK-3914,PAYLOAD,2024-01-08 03:02:10,15.08854871,0.0001607,53.2186,2.5844,116.3861,243.7296,0.00014419,2.008e-05,0.0,0 STARLINK-3914,1 52490U 22049AR  24008.12650611  .00002008  00000-0  14419-3 0  9995,2 52490  53.2186   2.5844 0001607 116.3861 243.7296 15.08854871 93057,6917.835,95.437,540.812,538.588,0.0
52490.0,STARLINK-3914,PAYLOAD,2024-01-08 09:23:42,15.08862578,0.0001539,53.2183,1.394,111.7453,248.3703,0.00022571,3.308e-05,0.0,0 STARLINK-3914,1 52490U 22049AR  24008.39145885  .00003308  00000-0  22571-3 0  9998,2 52490  53.2183   1.3940 0001539 111.7453 248.3703 15.08862578 92931,6917.811,95.436,540.741,538.612,0.0
52490.0,STARLINK-3914,PAYLOAD,2024-01-09 04:28:21,15.0884407,0.0001855,53.2165,357.8203,125.5809,234.5357,0.00026036,3.858e-05,0.0,0 STARLINK-3914,1 52490U 22049AR  24009.18635525  .00003858  00000-0  26036-3 0  9991,2 52490  53.2165 357.8203 0001855 125.5809 234.5357 15.08844070 93212,6917.868,95.437,541.016,538.45,0.0
52490.0,STARLINK-3914,PAYLOAD,2024-01-10 05:54:31,15.08849552,0.0001599,53.2175,353.0684,114.1026,246.0134,-1.8266e-05,-5.79e-06,0.0,0 STARLINK-3914,1 52490U 22049AR  24010.24619265 -.00000579  00000-0 -18266-4 0  9999,2 52490  53.2175 353.0684 0001599 114.1026 246.0134 15.08849552 93372,6917.851,95.437,540.822,538.61,0.0
52490.0,STARLINK-3914,PAYLOAD,2024-01-11 05:45:18,15.08842817,0.0001524,53.2187,348.6094,92.1086,268.008,7.0981e-05,8.42e-06,0.0,0 STARLINK-3914,1 52490U 22049AR  24011.23979585  .00000842  00000-0  70981-4 0  9996,2 52490  53.2187 348.6094 0001524  92.1086 268.0080 15.08842817 93527,6917.872,95.437,540.791,538.682,0.0
